CCSDS_OMM_VERS = 2.0
CREATION_DATE  = 
ORIGINATOR     = 

OBJECT_NAME    = HULIANWANG DIGUI-130
OBJECT_ID      = 2025-311C
CENTER_NAME    = EARTH
REF_FRAME      = TEME
TIME_SYSTEM    = UTC
MEAN_ELEMENT_THEORY = SGP/SGP4

EPOCH          = 2026-01-08T14:20:47.396256
MEAN_MOTION    = 13.90216278
ECCENTRICITY   = .0007811
INCLINATION    = 50.0080
RA_OF_ASC_NODE = 341.5121
ARG_OF_PERICENTER = 300.8106
MEAN_ANOMALY   = 59.2024

EPHEMERIS_TYPE = 0
CLASSIFICATION_TYPE = U
NORAD_CAT_ID   = 67238
ELEMENT_SET_NO = 999
REV_AT_EPOCH   = 190
BSTAR          = .15551377E-4
MEAN_MOTION_DOT = -.127E-5
MEAN_MOTION_DDOT = 0

CCSDS_OMM_VERS = 2.0
CREATION_DATE  = 
ORIGINATOR     = 

OBJECT_NAME    = HULIANWANG DIGUI-131
OBJECT_ID      = 2025-311D
CENTER_NAME    = EARTH
REF_FRAME      = TEME
TIME_SYSTEM    = UTC
MEAN_ELEMENT_THEORY = SGP/SGP4

EPOCH          = 2026-01-08T14:25:10.456608
MEAN_MOTION    = 13.90203482
ECCENTRICITY   = .0009375
INCLINATION    = 50.0078
RA_OF_ASC_NODE = 341.5263
ARG_OF_PERICENTER = 308.4631
MEAN_ANOMALY   = 51.5426

EPHEMERIS_TYPE = 0
CLASSIFICATION_TYPE = U
NORAD_CAT_ID   = 67239
ELEMENT_SET_NO = 999
REV_AT_EPOCH   = 190
BSTAR          = .15619054E-4
MEAN_MOTION_DOT = -.127E-5
MEAN_MOTION_DDOT = 0

CCSDS_OMM_VERS = 2.0
CREATION_DATE  = 
ORIGINATOR     = 

OBJECT_NAME    = HULIANWANG DIGUI-132
OBJECT_ID      = 2025-311E
CENTER_NAME    = EARTH
REF_FRAME      = TEME
TIME_SYSTEM    = UTC
MEAN_ELEMENT_THEORY = SGP/SGP4

EPOCH          = 2026-01-04T13:39:02.141856
MEAN_MOTION    = 13.91379389
ECCENTRICITY   = .00071319
INCLINATION    = 50.0039
RA_OF_ASC_NODE = 357.5199
ARG_OF_PERICENTER = 294.8908
MEAN_ANOMALY   = 65.1249

EPHEMERIS_TYPE = 0
CLASSIFICATION_TYPE = U
NORAD_CAT_ID   = 67240
ELEMENT_SET_NO = 999
REV_AT_EPOCH   = 134
BSTAR          = .15935845E-4
MEAN_MOTION_DOT = -.126E-5
MEAN_MOTION_DDOT = 0

CCSDS_OMM_VERS = 2.0
CREATION_DATE  = 
ORIGINATOR     = 

OBJECT_NAME    = HULIANWANG DIGUI-133
OBJECT_ID      = 2025-311F
CENTER_NAME    = EARTH
REF_FRAME      = TEME
TIME_SYSTEM    = UTC
MEAN_ELEMENT_THEORY = SGP/SGP4

EPOCH          = 2026-01-04T20:31:19.147872
MEAN_MOTION    = 13.91326030
ECCENTRICITY   = .00078174
INCLINATION    = 50.0149
RA_OF_ASC_NODE = 356.3783
ARG_OF_PERICENTER = 300.1000
MEAN_ANOMALY   = 59.9124

EPHEMERIS_TYPE = 0
CLASSIFICATION_TYPE = U
NORAD_CAT_ID   = 67241
ELEMENT_SET_NO = 999
REV_AT_EPOCH   = 138
BSTAR          = .17388216E-4
MEAN_MOTION_DOT = -.124E-5
MEAN_MOTION_DDOT = 0

CCSDS_OMM_VERS = 2.0
CREATION_DATE  = 
ORIGINATOR     = 

OBJECT_NAME    = HULIANWANG DIGUI-134
OBJECT_ID      = 2025-311G
CENTER_NAME    = EARTH
REF_FRAME      = TEME
TIME_SYSTEM    = UTC
MEAN_ELEMENT_THEORY = SGP/SGP4

EPOCH          = 2026-01-04T11:56:36.612672
MEAN_MOTION    = 13.91002118
ECCENTRICITY   = .00087789
INCLINATION    = 50.0111
RA_OF_ASC_NODE = 357.8147
ARG_OF_PERICENTER = 301.7545
MEAN_ANOMALY   = 58.2498

EPHEMERIS_TYPE = 0
CLASSIFICATION_TYPE = U
NORAD_CAT_ID   = 67242
ELEMENT_SET_NO = 999
REV_AT_EPOCH   = 133
BSTAR          = .16724934E-4
MEAN_MOTION_DOT = -.125E-5
MEAN_MOTION_DDOT = 0

CCSDS_OMM_VERS = 2.0
CREATION_DATE  = 
ORIGINATOR     = 

OBJECT_NAME    = HULIANWANG DIGUI-135
OBJECT_ID      = 2025-311H
CENTER_NAME    = EARTH
REF_FRAME      = TEME
TIME_SYSTEM    = UTC
MEAN_ELEMENT_THEORY = SGP/SGP4

EPOCH          = 2026-01-06T22:37:13.564704
MEAN_MOTION    = 13.90182348
ECCENTRICITY   = .00080047
INCLINATION    = 50.0053
RA_OF_ASC_NODE = 348.0788
ARG_OF_PERICENTER = 305.4177
MEAN_ANOMALY   = 54.5973

EPHEMERIS_TYPE = 0
CLASSIFICATION_TYPE = U
NORAD_CAT_ID   = 67243
ELEMENT_SET_NO = 999
REV_AT_EPOCH   = 167
BSTAR          = .14268992E-4
MEAN_MOTION_DOT = -.128E-5
MEAN_MOTION_DDOT = 0

CCSDS_OMM_VERS = 2.0
CREATION_DATE  = 
ORIGINATOR     = 

OBJECT_NAME    = HULIANWANG DIGUI-136
OBJECT_ID      = 2025-311J
CENTER_NAME    = EARTH
REF_FRAME      = TEME
TIME_SYSTEM    = UTC
MEAN_ELEMENT_THEORY = SGP/SGP4

EPOCH          = 2026-01-08T15:55:40.517760
MEAN_MOTION    = 13.90228708
ECCENTRICITY   = .00068437
INCLINATION    = 50.0112
RA_OF_ASC_NODE = 341.2029
ARG_OF_PERICENTER = 317.5253
MEAN_ANOMALY   = 42.5116

EPHEMERIS_TYPE = 0
CLASSIFICATION_TYPE = U
NORAD_CAT_ID   = 67244
ELEMENT_SET_NO = 999
REV_AT_EPOCH   = 191
BSTAR          = .10814046E-3
MEAN_MOTION_DOT = -.12E-6
MEAN_MOTION_DDOT = 0

CCSDS_OMM_VERS = 2.0
CREATION_DATE  = 
ORIGINATOR     = 

OBJECT_NAME    = CZ-8A R/B
OBJECT_ID      = 2025-311K
CENTER_NAME    = EARTH
REF_FRAME      = TEME
TIME_SYSTEM    = UTC
MEAN_ELEMENT_THEORY = SGP/SGP4

EPOCH          = 2026-01-08T14:30:29.338272
MEAN_MOTION    = 14.12609026
ECCENTRICITY   = .00890108
INCLINATION    = 50.0056
RA_OF_ASC_NODE = 339.5532
ARG_OF_PERICENTER = 129.4094
MEAN_ANOMALY   = 231.4737

EPHEMERIS_TYPE = 0
CLASSIFICATION_TYPE = U
NORAD_CAT_ID   = 67245
ELEMENT_SET_NO = 999
REV_AT_EPOCH   = 193
BSTAR          = .2777687E-4
MEAN_MOTION_DOT = -.102E-5
MEAN_MOTION_DDOT = 0

CCSDS_OMM_VERS = 2.0
CREATION_DATE  = 
ORIGINATOR     = 

OBJECT_NAME    = FENGYUN 4C
OBJECT_ID      = 2025-312A
CENTER_NAME    = EARTH
REF_FRAME      = TEME
TIME_SYSTEM    = UTC
MEAN_ELEMENT_THEORY = SGP/SGP4

EPOCH          = 2026-01-08T11:31:43.518720
MEAN_MOTION    = 1.00281361
ECCENTRICITY   = .00027686
INCLINATION    = 0.0882
RA_OF_ASC_NODE = 247.9121
ARG_OF_PERICENTER = 45.0797
MEAN_ANOMALY   = 121.0319

EPHEMERIS_TYPE = 0
CLASSIFICATION_TYPE = U
NORAD_CAT_ID   = 67246
ELEMENT_SET_NO = 999
REV_AT_EPOCH   = 17
BSTAR          = 0
MEAN_MOTION_DOT = -.316E-5
MEAN_MOTION_DDOT = 0

CCSDS_OMM_VERS = 2.0
CREATION_DATE  = 
ORIGINATOR     = 

OBJECT_NAME    = CZ-3B R/B
OBJECT_ID      = 2025-312B
CENTER_NAME    = EARTH
REF_FRAME      = TEME
TIME_SYSTEM    = UTC
MEAN_ELEMENT_THEORY = SGP/SGP4

EPOCH          = 2026-01-08T08:51:26.283744
MEAN_MOTION    = 2.41705398
ECCENTRICITY   = .72226991
INCLINATION    = 28.4221
RA_OF_ASC_NODE = 329.3418
ARG_OF_PERICENTER = 187.0775
MEAN_ANOMALY   = 150.2981

EPHEMERIS_TYPE = 0
CLASSIFICATION_TYPE = U
NORAD_CAT_ID   = 67247
ELEMENT_SET_NO = 999
REV_AT_EPOCH   = 30
BSTAR          = .57626578E-3
MEAN_MOTION_DOT = .167716E-2
MEAN_MOTION_DDOT = .910766E-6

CCSDS_OMM_VERS = 2.0
CREATION_DATE  = 
ORIGINATOR     = 

OBJECT_NAME    = 2025-313A
OBJECT_ID      = 2025-313A
CENTER_NAME    = EARTH
REF_FRAME      = TEME
TIME_SYSTEM    = UTC
MEAN_ELEMENT_THEORY = SGP/SGP4

EPOCH          = 2026-01-08T12:33:23.824224
MEAN_MOTION    = 14.66773007
ECCENTRICITY   = .0280362
INCLINATION    = 97.5637
RA_OF_ASC_NODE = 85.1971
ARG_OF_PERICENTER = 129.4420
MEAN_ANOMALY   = 233.1961

EPHEMERIS_TYPE = 0
CLASSIFICATION_TYPE = U
NORAD_CAT_ID   = 67248
ELEMENT_SET_NO = 999
REV_AT_EPOCH   = 161
BSTAR          = .21686819E-3
MEAN_MOTION_DOT = .2133E-4
MEAN_MOTION_DDOT = 0

CCSDS_OMM_VERS = 2.0
CREATION_DATE  = 
ORIGINATOR     = 

OBJECT_NAME    = 2025-313B
OBJECT_ID      = 2025-313B
CENTER_NAME    = EARTH
REF_FRAME      = TEME
TIME_SYSTEM    = UTC
MEAN_ELEMENT_THEORY = SGP/SGP4

EPOCH          = 2026-01-08T13:04:42.598272
MEAN_MOTION    = 14.73139606
ECCENTRICITY   = .02976719
INCLINATION    = 97.5325
RA_OF_ASC_NODE = 85.2654
ARG_OF_PERICENTER = 133.8385
MEAN_ANOMALY   = 228.7848

EPHEMERIS_TYPE = 0
CLASSIFICATION_TYPE = U
NORAD_CAT_ID   = 67249
ELEMENT_SET_NO = 999
REV_AT_EPOCH   = 162
BSTAR          = .43418345E-3
MEAN_MOTION_DOT = .5663E-4
MEAN_MOTION_DDOT = 0

